ONEWEB-0326             
1 49195U 21083K   22293.34640262  .00000047  00000+0  85730-4 0  9994
2 49195  87.9173 240.8091 0002643  80.6649 279.4782 13.18682864 55227
ONEWEB-0327             
1 49196U 21083L   22293.40679932  .00000061  00000+0  12120-3 0  9996
2 49196  87.9175 240.7791 0002592  78.2660 281.8763 13.18680273 55256
ONEWEB-0328             
1 49197U 21083M   22293.52403065 -.00000040  00000+0 -14373-3 0  9993
2 49197  87.9042 225.5648 0002086  80.3932 279.7433 13.13470586 56852
ONEWEB-0331             
1 49198U 21083N   22292.43125836  .00000164  00000+0  38239-3 0  9992
2 49198  87.9172 241.0154 0002307  80.9482 279.1911 13.18685613 53838
ONEWEB-0333             
1 49199U 21083P   22292.52841397 -.00000138  00000+0 -41213-3 0  9999
2 49199  87.9040 225.7614 0001615  72.6428 287.4877 13.13466999 55443
ONEWEB-0334             
1 49200U 21083Q   22293.33334491 -.00055949  00000+0 -57672-2 0  9999
2 49200  87.2105 186.1657 0001602 157.2464 190.8247 14.90655774 61031
ONEWEB-0335             
1 49201U 21083R   22292.37183600 -.00000062  00000+0 -20499-3 0  9991
2 49201  87.9038 225.7861 0002059  83.2477 276.8886 13.13466499 55439
ONEWEB-0336             
1 49202U 21083S   22293.33042141  .00000369  00000+0  97587-3 0  9993
2 49202  87.9034 225.5975 0001914  69.6865 290.4470 13.13474324 56852
ONEWEB-0337             
1 49203U 21083T   22292.36336863  .00000192  00000+0  48992-3 0  9993
2 49203  87.9037 225.7904 0001961  82.6458 277.4894 13.13473777 55423
ONEWEB-0338             
1 49204U 21083U   22293.58334491  .00071235  00000+0  72108-2 0  9995
2 49204  87.2164 186.3788 0000205  73.3195  84.3605 14.90610071 61074
ONEWEB-0339             
1 49205U 21083V   22293.19708794  .00000316  00000+0  83001-3 0  9991
2 49205  87.9037 225.6243 0001535  87.2961 272.8343 13.13473681 56813
ONEWEB-0340             
1 49206U 21083W   22292.41887345  .00000048  00000+0  89475-4 0  9990
2 49206  87.9175 241.0073 0002007  81.5868 278.5492 13.18684663 53799
ONEWEB-0341             
1 49207U 21083X   22293.41299721  .00001241  00000+0  31141-2 0  9998
2 49207  87.9175 240.7423 0002186 106.3643 253.7730 13.18679564 55235
ONEWEB-0342             
1 49208U 21083Y   22293.33334491 -.00056926  00000+0 -58645-2 0  9994
2 49208  87.2125 186.2688 0000604  51.2277  18.9651 14.90685912 61038
ONEWEB-0343             
1 49209U 21083Z   22292.42348958  .00000144  00000+0  33243-3 0  9994
2 49209  87.9173 240.9763 0001655 123.8358 236.2931 13.18689561 53865
ONEWEB-0344             
1 49210U 21083AA  22293.24155005 -.00000141  00000+0 -42082-3 0  9996
2 49210  87.9038 225.6198 0002165  78.7151 281.4221 13.13466531 56823
ONEWEB-0345             
1 49211U 21083AB  22293.33569607  .00000465  00000+0  12394-2 0  9993
2 49211  87.9036 225.5868 0002487  90.1815 269.9599 13.13472360 56845
ONEWEB-0346             
1 49212U 21083AC  22292.58146438  .00000095  00000+0  20870-3 0  9991
2 49212  87.9175 240.9358 0002511  80.7021 279.4395 13.18684962 53820
ONEWEB-0348             
1 49213U 21083AD  22293.58334491  .00071218  00000+0  72156-2 0  9999
2 49213  87.2151 186.3079 0000843 141.4206 141.9602 14.90573862 61074
ONEWEB-0350             
1 49214U 21083AE  22292.58344320  .00000306  00000+0  80392-3 0  9993
2 49214  87.9038 225.7615 0002211  84.6751 275.4631 13.13472848 55472
ONEWEB-0351             
1 49215U 21083AF  22293.33334491 -.00058708  00000+0 -60523-2 0  9990
2 49215  87.2080 186.0588 0001679 139.0534   4.3676 14.90666218 61053
ONEWEB-0352             
1 49216U 21083AG  22293.24999855  .00000181  00000+0  46064-3 0  9997
2 49216  87.9039 225.6134 0001549  72.3583 287.7716 13.13468091 56959
ONEWEB-0354             
1 49217U 21083AH  22293.33334491 -.00056547  00000+0 -58264-2 0  9990
2 49217  87.2135 186.3062 0001514  93.5150 308.0572 14.90675976 61052
ONEWEB-0355             
1 49218U 21083AJ  22292.51997137  .00000121  00000+0  29563-3 0  9998
2 49218  87.9038 225.7620 0001648  86.0859 274.0459 13.13468765 56736
ONEWEB-0357             
1 49219U 21083AK  22293.33334491 -.00055768  00000+0 -57446-2 0  9997
2 49219  87.2131 186.2932 0000193 359.4013 343.7905 14.90683960 61035
ONEWEB-0332             
1 49279U 21090A   22293.33334491 -.00041206  00000+0 -11165+0 0  9998
2 49279  87.9129 195.3133 0001178  69.1565 196.2034 13.14520295 52074
ONEWEB-0347             
1 49280U 21090B   22293.33334491 -.00056714  00000+0 -21455-1 0  9995
2 49280  87.6997 183.5448 0005192  89.1571  65.4044 14.31735991 54108
ONEWEB-0349             
1 49281U 21090C   22293.33334491 -.00043986  00000+0 -10870+0 0  9990
2 49281  87.9226 180.2514 0002104  86.5125 253.0214 13.20795561 54785
ONEWEB-0353             
1 49282U 21090D   22293.33334491 -.00039289  00000+0 -10643+0 0  9990
2 49282  87.9080 195.3308 0001479  62.9172 242.4220 13.14523474 53374
ONEWEB-0356             
1 49283U 21090E   22293.33334491 -.00043934  00000+0 -10857+0 0  9990
2 49283  87.9277 180.2460 0002773  67.3865 282.2262 13.20795370 54788
ONEWEB-0358             
1 49284U 21090F   22293.33334491 -.00045563  00000+0 -11261+0 0  9991
2 49284  87.9310 180.1509 0002268  80.5850 148.8905 13.20798163 55505
ONEWEB-0359             
1 49285U 21090G   22293.33334491 -.00045435  00000+0 -11230+0 0  9996
2 49285  87.9310 180.1886 0001915  98.2517 141.2092 13.20794915 55479
ONEWEB-0360             
1 49286U 21090H   22293.33334491 -.00044709  00000+0 -11050+0 0  9990
2 49286  87.9307 180.2006 0001867  77.8020 201.7392 13.20792246 54805
ONEWEB-0361             
1 49287U 21090J   22293.33334491 -.00043948  00000+0 -10861+0 0  9994
2 49287  87.9282 180.2298 0001856  76.8945 282.5852 13.20793220 54793
ONEWEB-0362             
1 49288U 21090K   22293.58334491  .00026098  00000+0  64983-1 0  9993
2 49288  87.9318 210.3775 0001813  63.7080 263.3904 13.19710535 51571
ONEWEB-0363             
1 49289U 21090L   22293.33334491 -.00044547  00000+0 -11009+0 0  9997
2 49289  87.9280 180.2270 0002157  75.1436 214.3896 13.20797701 54806
ONEWEB-0364             
1 49290U 21090M   22293.33334491 -.00056393  00000+0 -22986-1 0  9999
2 49290  87.6936 183.8096 0003931  79.7310  81.1719 14.27926189 55302
ONEWEB-0365             
1 49291U 21090N   22293.33334491 -.00028951  00000+0 -72558-1 0  9999
2 49291  87.9231 210.4818 0001828  80.3819 110.2717 13.19744008 51517
ONEWEB-0366             
1 49292U 21090P   22293.33334491 -.00038734  00000+0 -10492+0 0  9997
2 49292  87.9079 195.3155 0001749  63.8191 261.5150 13.14524309 53365
ONEWEB-0367             
1 49293U 21090Q   22293.33334491 -.00044393  00000+0 -10971+0 0  9998
2 49293  87.9253 180.2617 0001560  63.3458 236.1273 13.20796391 54799
ONEWEB-0368             
1 49294U 21090R   22293.58334491  .00059795  00000+0  24000-1 0  9996
2 49294  87.6961 183.7424 0004310 100.2777  16.0362 14.27819557 55353
ONEWEB-0369             
1 49295U 21090S   22293.58334491  .00026309  00000+0  65511-1 0  9994
2 49295  87.9265 210.4122 0001775  67.2073 245.2371 13.19708941 51547
ONEWEB-0370             
1 49296U 21090T   22293.33334491 -.00044903  00000+0 -11098+0 0  9999
2 49296  87.9296 180.2346 0001831  72.7143 196.8469 13.20793111 54835
ONEWEB-0371             
1 49297U 21090U   22293.33334491 -.00029073  00000+0 -72864-1 0  9991
2 49297  87.9312 210.4075 0001972  77.5385  98.3595 13.19744058 51542
ONEWEB-0372             
1 49298U 21090V   22293.33334491 -.00044247  00000+0 -10935+0 0  9991
2 49298  87.9289 180.2306 0001664  58.4462 251.0998 13.20795185 54805
ONEWEB-0373             
1 49299U 21090W   22293.33334491 -.00052427  00000+0 -19823-1 0  9998
2 49299  87.6958 183.4528 0006750 119.0353 245.9317 14.31725955 55394
ONEWEB-0374             
1 49300U 21090X   22293.33334491 -.00039105  00000+0 -10591+0 0  9990
2 49300  87.9089 195.3352 0001817  66.7459 318.7344 13.14536038 53351
ONEWEB-0375             
1 49301U 21090Y   22293.33334491 -.00045244  00000+0 -11182+0 0  9999
2 49301  87.9336 180.1785 0002693  74.4715 175.0045 13.20797204 55482
ONEWEB-0376             
1 49302U 21090Z   22293.33334491 -.00028988  00000+0 -72648-1 0  9992
2 49302  87.9256 210.4687 0001594  69.4384 113.8139 13.19745923 51543
ONEWEB-0377             
1 49303U 21090AA  22293.33334491 -.00045064  00000+0 -11138+0 0  9992
2 49303  87.9292 180.1768 0001738  82.9666 176.5889 13.20793590 55468
ONEWEB-0378             
1 49304U 21090AB  22293.33334491 -.00044403  00000+0 -10974+0 0  9996
2 49304  87.9243 180.2698 0001645  65.4022 344.1247 13.20792963 54763
ONEWEB-0379             
1 49305U 21090AC  22293.33334491 -.00040374  00000+0 -10938+0 0  9990
2 49305  87.9111 195.3188 0001741  67.7908 347.7042 13.14524798 53363
ONEWEB-0380             
1 49306U 21090AD  22293.33334491 -.00028917  00000+0 -72472-1 0  9993
2 49306  87.9255 210.4747 0001916  82.5263 115.4418 13.19744816 51518
ONEWEB-0381             
1 49307U 21090AE  22293.33334491 -.00044140  00000+0 -10909+0 0  9995
2 49307  87.9294 180.2541 0001943  73.5620 245.9270 13.20791547 54798
ONEWEB-0382             
1 49308U 21090AF  22293.33334491 -.00043985  00000+0 -10870+0 0  9999
2 49308  87.9285 180.2390 0002287  72.3997 297.1254 13.20793813 54796
ONEWEB-0383             
1 49309U 21090AG  22293.33334491 -.00041858  00000+0 -11341+0 0  9991
2 49309  87.9143 195.2696 0001978  64.2328  20.8394 13.14529598 53390
ONEWEB-0384             
1 49310U 21090AH  22293.33334491 -.00044022  00000+0 -10879+0 0  9994
2 49310  87.9265 180.2458 0002703  72.2885 307.2907 13.20794845 54806
ONEWEB-0385             
1 49311U 21090AJ  22293.33334491 -.00044258  00000+0 -10938+0 0  9992
2 49311  87.9289 180.2330 0002181  68.9985 330.5082 13.20792862 54782
ONEWEB-0386             
1 49312U 21090AK  22293.33334491 -.00044048  00000+0 -10885+0 0  9991
2 49312  87.9252 180.2364 0002112  63.5298 266.0017 13.20798118 54794
